OBJECT_NAME,OBJECT_ID,EPOCH,MEAN_MOTION,ECCENTRICITY,INCLINATION,RA_OF_ASC_NODE,ARG_OF_PERICENTER,MEAN_ANOMALY,EPHEMERIS_TYPE,CLASSIFICATION_TYPE,NORAD_CAT_ID,ELEMENT_SET_NO,REV_AT_EPOCH,BSTAR,MEAN_MOTION_DOT,MEAN_MOTION_DDOT
BIOMASS,2025-090A,2026-06-05T00:48:06.046848,14.67538542,.0001347,98.0745,343.5266,83.0880,277.0478,0,U,63772,999,5890,.1247E-3,.659E-5,0
GOSAT-GW (IBUKI GW),2025-141A,2026-06-05T04:33:53.654976,14.67550313,.0001414,98.0570,93.7025,82.4294,277.7071,0,U,64694,999,5008,.16109E-3,.866E-5,0
IONOSFERA-M 3,2025-155A,2026-06-05T03:20:05.178048,14.21484333,.0000263,98.6020,118.3477,190.5194,169.5978,0,U,64876,999,4469,.50535E-4,.68E-6,0
IONOSFERA-M 4,2025-155B,2026-06-05T04:10:17.125248,14.21486502,.0000635,98.6025,118.2992,110.4615,249.6631,0,U,64877,999,4469,.50673E-4,.68E-6,0
MICROCARB,2025-156A,2026-06-04T17:06:33.120576,14.72312642,.0015289,97.9831,233.0726,315.5764,44.4217,0,U,64899,999,4613,.11035E-3,.649E-5,0
CO3D 3,2025-156B,2026-06-05T03:24:33.983136,15.20207550,.0000998,97.4324,235.0083,142.1716,217.9589,0,U,64900,999,4770,.21042E-3,.4491E-4,0
CO3D 4,2025-156C,2026-06-05T03:24:48.449088,15.20207625,.0000969,97.4326,235.0083,36.4734,323.6567,0,U,64901,999,4770,.21294E-3,.4545E-4,0
CO3D 2,2025-156D,2026-06-05T02:36:46.042272,15.20214324,.0001352,97.4325,234.8746,119.8335,240.3035,0,U,64902,999,4769,.26095E-3,.5588E-4,0
CO3D 1,2025-156E,2026-06-05T02:36:59.474016,15.20205793,.0001129,97.4325,234.8749,119.7207,240.4141,0,U,64903,999,4769,.2589E-3,.5542E-4,0
PRSC-S1,2025-164A,2026-06-04T23:57:53.983008,15.06341220,.0007657,41.1316,356.4524,272.8435,87.1502,0,U,65055,999,4659,.40009E-3,.582E-4,0
SENTINEL-6B,2025-264A,2026-06-04T04:52:45.263424,12.80929598,.000806,66.0384,162.1463,269.2892,90.7199,0,U,66514,999,2550,.18263494E-4,-.57E-6,0
CAS500-3,2025-274F,2026-06-05T01:06:37.740096,14.88291433,.0006031,97.7446,84.3737,142.7649,217.3987,0,U,66655,999,2834,.16896E-3,.1508E-4,0
CSG-3,2026-001A,2026-06-05T01:07:51.453984,14.82160488,.0001314,97.8886,339.8250,93.6956,266.4408,0,U,67304,999,2266,.54352E-4,.381E-5,0
PRSC-E03,2026-092A,2026-06-05T04:36:41.684832,15.06611779,.0005327,37.9994,160.4104,283.7056,76.3112,0,U,68835,999,614,.17665E-3,.256E-4,0
CAS500-2,2026-100AK,2026-06-04T15:33:45.491616,15.20434131,.00115729,97.4084,53.7208,74.0899,286.1611,0,U,69013,999,490,.35747976E-3,.7744E-4,0
