[ {"name": "BIOMASS", "line1": "1 63772U 25090A   26156.03340332  .00000659  00000+0  12470-3 0  9995", "line2": "2 63772  98.0745 343.5266 0001347  83.0880 277.0478 14.67538542 58903"}, {"name": "GOSAT-GW (IBUKI GW)", "line1": "1 64694U 25141A   26156.19020434  .00000866  00000+0  16109-3 0  9994", "line2": "2 64694  98.0570  93.7025 0001414  82.4294 277.7071 14.67550313 50084"}, {"name": "IONOSFERA-M 3", "line1": "1 64876U 25155A   26156.13894882  .00000068  00000+0  50535-4 0  9997", "line2": "2 64876  98.6020 118.3477 0000263 190.5194 169.5978 14.21484333 44690"}, {"name": "IONOSFERA-M 4", "line1": "1 64877U 25155B   26156.17380932  .00000068  00000+0  50673-4 0  9991", "line2": "2 64877  98.6025 118.2992 0000635 110.4615 249.6631 14.21486502 44695"}, {"name": "MICROCARB", "line1": "1 64899U 25156A   26155.71288334  .00000649  00000+0  11035-3 0  9991", "line2": "2 64899  97.9831 233.0726 0015289 315.5764  44.4217 14.72312642 46132"}, {"name": "CO3D 3", "line1": "1 64900U 25156B   26156.14205999  .00004491  00000+0  21042-3 0  9996", "line2": "2 64900  97.4324 235.0083 0000998 142.1716 217.9589 15.20207550 47705"}, {"name": "CO3D 4", "line1": "1 64901U 25156C   26156.14222742  .00004545  00000+0  21294-3 0  9991", "line2": "2 64901  97.4326 235.0083 0000969  36.4734 323.6567 15.20207625 47705"}, {"name": "CO3D 2", "line1": "1 64902U 25156D   26156.10886623  .00005588  00000+0  26095-3 0  9994", "line2": "2 64902  97.4325 234.8746 0001352 119.8335 240.3035 15.20214324 47695"}, {"name": "CO3D 1", "line1": "1 64903U 25156E   26156.10902169  .00005542  00000+0  25890-3 0  9991", "line2": "2 64903  97.4325 234.8749 0001129 119.7207 240.4141 15.20205793 47697"}, {"name": "PRSC-S1", "line1": "1 65055U 25164A   26155.99854147  .00005820  00000+0  40009-3 0  9995", "line2": "2 65055  41.1316 356.4524 0007657 272.8435  87.1502 15.06341220 46595"}, {"name": "SENTINEL-6B", "line1": "1 66514U 25264A   26155.20330166 -.00000057  00000+0  18263-4 0  9997", "line2": "2 66514  66.0384 162.1463 0008060 269.2892  90.7199 12.80929598 25506"}, {"name": "CAS500-3", "line1": "1 66655U 25274F   26156.04627014  .00001508  00000+0  16896-3 0  9998", "line2": "2 66655  97.7446  84.3737 0006031 142.7649 217.3987 14.88291433 28349"}, {"name": "CSG-3", "line1": "1 67304U 26001A   26156.04712331  .00000381  00000+0  54352-4 0  9994", "line2": "2 67304  97.8886 339.8250 0001314  93.6956 266.4408 14.82160488 22663"}, {"name": "PRSC-E03", "line1": "1 68835U 26092A   26156.19214913  .00002560  00000+0  17665-3 0  9999", "line2": "2 68835  37.9994 160.4104 0005327 283.7056  76.3112 15.06611779  6141"}, {"name": "CAS500-2", "line1": "1 69013U 26100AK  26155.64844319  .00007744  00000+0  35748-3 0  9997", "line2": "2 69013  97.4084  53.7208 0011572  74.0899 286.1611 15.20434131  4903"}]